{
  "type": "FeatureCollection",
  "features": [
    {
      "type": "Feature",
      "properties": {
        "norad_id": 30979,
        "name": "FENGYUN 1C DEB",
        "group": "fengyun-1c-debris",
        "lat": -81.63752070882312,
        "lon": -3.198571598203008,
        "alt_km": 523.3773725937754,
        "timestamp": "2025-12-13T18:50:04.710832+00:00",
        "meta_object_name": "FENGYUN 1C DEB",
        "meta_object_id": "1999-025BBV",
        "meta_epoch": "2025-12-09T22:57:38.170656",
        "meta_mean_motion": 14.78686634,
        "meta_eccentricity": 0.01904504,
        "meta_inclination": 97.8295,
        "meta_ra_of_asc_node": 242.4754,
        "meta_arg_of_pericenter": 250.3198,
        "meta_mean_anomaly": 169.3691,
        "meta_ephemeris_type": 0,
        "meta_classification_type": "U",
        "meta_norad_cat_id": 30979,
        "meta_element_set_no": 999,
        "meta_rev_at_epoch": 99104,
        "meta_bstar": 0.0015434466,
        "meta_mean_motion_dot": 0.00015338,
        "meta_mean_motion_ddot": 0,
        "tle_line1": "1 30979U 99025BBV 25343.95669179  .00015338  00000+0  15434-2 0  9990",
        "tle_line2": "2 30979  97.8295 242.4754 0190450 250.3198 169.3691 14.78686634991046"
      },
      "geometry": {
        "type": "Point",
        "coordinates": [
          -3.198571598203008,
          -81.63752070882312
        ]
      }
    },
    {
      "type": "Feature",
      "properties": {
        "norad_id": 30982,
        "name": "FENGYUN 1C DEB",
        "group": "fengyun-1c-debris",
        "lat": 19.30520253277381,
        "lon": -24.905641723144452,
        "alt_km": 677.4133177313461,
        "timestamp": "2025-12-13T18:50:04.710843+00:00",
        "meta_object_name": "FENGYUN 1C DEB",
        "meta_object_id": "1999-025BBY",
        "meta_epoch": "2025-12-13T05:34:26.309280",
        "meta_mean_motion": 14.50954096,
        "meta_eccentricity": 0.01804081,
        "meta_inclination": 98.2166,
        "meta_ra_of_asc_node": 337.4557,
        "meta_arg_of_pericenter": 311.0425,
        "meta_mean_anomaly": 62.2458,
        "meta_ephemeris_type": 0,
        "meta_classification_type": "U",
        "meta_norad_cat_id": 30982,
        "meta_element_set_no": 999,
        "meta_rev_at_epoch": 71061,
        "meta_bstar": 0.00058839886,
        "meta_mean_motion_dot": 2.817e-05,
        "meta_mean_motion_ddot": 0,
        "tle_line1": "1 30982U 99025BBY 25347.23224895  .00002817  00000+0  58840-3 0  9998",
        "tle_line2": "2 30982  98.2166 337.4557 0180408 311.0425  62.2458 14.50954096710612"
      },
      "geometry": {
        "type": "Point",
        "coordinates": [
          -24.905641723144452,
          19.30520253277381
        ]
      }
    },
    {
      "type": "Feature",
      "properties": {
        "norad_id": 30984,
        "name": "FENGYUN 1C DEB",
        "group": "fengyun-1c-debris",
        "lat": -70.19369060385365,
        "lon": -179.6971015184156,
        "alt_km": 765.8354531262958,
        "timestamp": "2025-12-13T18:50:04.710853+00:00",
        "meta_object_name": "FENGYUN 1C DEB",
        "meta_object_id": "1999-025BCA",
        "meta_epoch": "2025-12-12T08:33:31.071168",
        "meta_mean_motion": 14.50428795,
        "meta_eccentricity": 0.01274339,
        "meta_inclination": 98.264,
        "meta_ra_of_asc_node": 22.7013,
        "meta_arg_of_pericenter": 9.2632,
        "meta_mean_anomaly": 351.087,
        "meta_ephemeris_type": 0,
        "meta_classification_type": "U",
        "meta_norad_cat_id": 30984,
        "meta_element_set_no": 999,
        "meta_rev_at_epoch": 95158,
        "meta_bstar": 0.0012479232,
        "meta_mean_motion_dot": 5.368e-05,
        "meta_mean_motion_ddot": 0,
        "tle_line1": "1 30984U 99025BCA 25346.35660962  .00005368  00000+0  12479-2 0  9992",
        "tle_line2": "2 30984  98.2640  22.7013 0127433   9.2632 351.0870 14.50428795951589"
      },
      "geometry": {
        "type": "Point",
        "coordinates": [
          -179.6971015184156,
          -70.19369060385365
        ]
      }
    },
    {
      "type": "Feature",
      "properties": {
        "norad_id": 30988,
        "name": "FENGYUN 1C DEB",
        "group": "fengyun-1c-debris",
        "lat": 38.04718105914867,
        "lon": 122.05201781813993,
        "alt_km": 558.6738715095962,
        "timestamp": "2025-12-13T18:50:04.710864+00:00",
        "meta_object_name": "FENGYUN 1C DEB",
        "meta_object_id": "1999-025BCE",
        "meta_epoch": "2025-12-12T13:53:40.848000",
        "meta_mean_motion": 15.26148831,
        "meta_eccentricity": 0.01132423,
        "meta_inclination": 98.5408,
        "meta_ra_of_asc_node": 293.9203,
        "meta_arg_of_pericenter": 340.9042,
        "meta_mean_anomaly": 18.7963,
        "meta_ephemeris_type": 0,
        "meta_classification_type": "U",
        "meta_norad_cat_id": 30988,
        "meta_element_set_no": 999,
        "meta_rev_at_epoch": 99561,
        "meta_bstar": 0.0026841751,
        "meta_mean_motion_dot": 0.00084265,
        "meta_mean_motion_ddot": 0,
        "tle_line1": "1 30988U 99025BCE 25346.57894500  .00084265  00000+0  26842-2 0  9999",
        "tle_line2": "2 30988  98.5408 293.9203 0113242 340.9042  18.7963 15.26148831995610"
      },
      "geometry": {
        "type": "Point",
        "coordinates": [
          122.05201781813993,
          38.04718105914867
        ]
      }
    },
    {
      "type": "Feature",
      "properties": {
        "norad_id": 30989,
        "name": "FENGYUN 1C DEB",
        "group": "fengyun-1c-debris",
        "lat": -36.45934327574072,
        "lon": -125.4006947049626,
        "alt_km": 884.6168478659683,
        "timestamp": "2025-12-13T18:50:04.710875+00:00",
        "meta_object_name": "FENGYUN 1C DEB",
        "meta_object_id": "1999-025BCF",
        "meta_epoch": "2025-12-13T04:14:04.234560",
        "meta_mean_motion": 14.13938425,
        "meta_eccentricity": 0.00909962,
        "meta_inclination": 99.0526,
        "meta_ra_of_asc_node": 60.7482,
        "meta_arg_of_pericenter": 98.5954,
        "meta_mean_anomaly": 262.5541,
        "meta_ephemeris_type": 0,
        "meta_classification_type": "U",
        "meta_norad_cat_id": 30989,
        "meta_element_set_no": 999,
        "meta_rev_at_epoch": 95994,
        "meta_bstar": 0.0020519809,
        "meta_mean_motion_dot": 4.008e-05,
        "meta_mean_motion_ddot": 0,
        "tle_line1": "1 30989U 99025BCF 25347.17643790  .00004008  00000+0  20520-2 0  9994",
        "tle_line2": "2 30989  99.0526  60.7482 0090996  98.5954 262.5541 14.13938425959943"
      },
      "geometry": {
        "type": "Point",
        "coordinates": [
          -125.4006947049626,
          -36.45934327574072
        ]
      }
    },
    {
      "type": "Feature",
      "properties": {
        "norad_id": 30993,
        "name": "FENGYUN 1C DEB",
        "group": "fengyun-1c-debris",
        "lat": -52.795724675280425,
        "lon": -111.58618435138288,
        "alt_km": 789.1401962050732,
        "timestamp": "2025-12-13T18:50:04.710886+00:00",
        "meta_object_name": "FENGYUN 1C DEB",
        "meta_object_id": "1999-025BCK",
        "meta_epoch": "2025-12-13T04:38:19.254624",
        "meta_mean_motion": 14.35432858,
        "meta_eccentricity": 0.00162879,
        "meta_inclination": 98.846,
        "meta_ra_of_asc_node": 79.6451,
        "meta_arg_of_pericenter": 13.0316,
        "meta_mean_anomaly": 45.8616,
        "meta_ephemeris_type": 0,
        "meta_classification_type": "U",
        "meta_norad_cat_id": 30993,
        "meta_element_set_no": 999,
        "meta_rev_at_epoch": 96926,
        "meta_bstar": 0.0027920915,
        "meta_mean_motion_dot": 7.995e-05,
        "meta_mean_motion_ddot": 0,
        "tle_line1": "1 30993U 99025BCK 25347.19327841  .00007995  00000+0  27921-2 0  9997",
        "tle_line2": "2 30993  98.8460  79.6451 0016287  13.0316  45.8616 14.35432858969266"
      },
      "geometry": {
        "type": "Point",
        "coordinates": [
          -111.58618435138288,
          -52.795724675280425
        ]
      }
    },
    {
      "type": "Feature",
      "properties": {
        "norad_id": 30994,
        "name": "FENGYUN 1C DEB",
        "group": "fengyun-1c-debris",
        "lat": -2.8152460500566856,
        "lon": 175.76689443797966,
        "alt_km": 843.8832751260325,
        "timestamp": "2025-12-13T18:50:04.710896+00:00",
        "meta_object_name": "FENGYUN 1C DEB",
        "meta_object_id": "1999-025BCL",
        "meta_epoch": "2025-12-13T07:45:59.293152",
        "meta_mean_motion": 14.11771342,
        "meta_eccentricity": 0.00178833,
        "meta_inclination": 98.7,
        "meta_ra_of_asc_node": 355.7511,
        "meta_arg_of_pericenter": 172.9872,
        "meta_mean_anomaly": 187.1553,
        "meta_ephemeris_type": 0,
        "meta_classification_type": "U",
        "meta_norad_cat_id": 30994,
        "meta_element_set_no": 999,
        "meta_rev_at_epoch": 96593,
        "meta_bstar": 0.00025001789,
        "meta_mean_motion_dot": 4.14e-06,
        "meta_mean_motion_ddot": 0,
        "tle_line1": "1 30994U 99025BCL 25347.32360293  .00000414  00000+0  25002-3 0  9999",
        "tle_line2": "2 30994  98.7000 355.7511 0017883 172.9872 187.1553 14.11771342965934"
      },
      "geometry": {
        "type": "Point",
        "coordinates": [
          175.76689443797966,
          -2.8152460500566856
        ]
      }
    }
  ]
}